PROBA-1                 
1 26958U 01049B   26169.72971248  .00000909  00000+0  62372-4 0  9999
2 26958  97.9594 178.3162 0056476 116.7708 243.9313 15.07496952343857
CUTE-1 (CO-55)          
1 27844U 03031E   26169.02064842  .00000221  00000+0  11471-3 0  9993
2 27844  98.6736 177.5689 0009609 175.5784 184.5482 14.24336174191794
CUBESAT XI-IV (CO-57)   
1 27848U 03031J   26168.93924090  .00000186  00000+0  10079-3 0  9999
2 27848  98.6765 177.2007 0009073 194.7196 165.3719 14.23621196191482
APRIZESAT 4             
1 35684U 09041D   26169.67310749  .00000483  00000+0  64376-4 0  9995
2 35684  98.1412 245.0233 0042313 318.1217  41.6761 14.83880983911589
APRIZESAT 3             
1 35686U 09041F   26169.43647065  .00001583  00000+0  14062-3 0  9993
2 35686  98.2065 322.7199 0062803  63.7248 297.0406 14.96245554916562
PROBA-2                 
1 36037U 09059B   26169.06577994  .00000129  00000+0  40500-4 0  9997
2 36037  98.2450 352.4063 0011948 279.1293  80.8552 14.54862763881650
APRIZESAT 5             
1 37792U 11044E   26169.56109303  .00000864  00000+0  11629-3 0  9998
2 37792  98.2452 102.6404 0052226 359.9278   0.1917 14.81078623798997
APRIZESAT 6             
1 37793U 11044F   26169.70424558  .00000606  00000+0  92657-4 0  9992
2 37793  98.2362  80.2348 0044486  81.3364 335.6808 14.76917857797378
PROBA-V                 
1 39159U 13021A   26169.38428133  .00000046  00000+0  38301-4 0  9998
2 39159  98.3584 147.9318 0005185 120.6226 239.5465 14.23597149681281
APRIZESAT 7             
1 39416U 13066A   26169.36149500  .00000949  00000+0  99276-4 0  9999
2 39416  97.7709 122.5645 0035090 205.3037 154.6464 14.91566307681407
APRIZESAT 8             
1 39425U 13066K   26169.28488904  .00000746  00000+0  86790-4 0  9996
2 39425  97.8221 116.7374 0044401 282.8265  76.7992 14.87654398679837
BUGSAT-1 (TITA)         
1 40014U 14033E   26169.68679082  .00003482  00000+0  18564-3 0  9993
2 40014  98.0429 262.3235 0028118 173.2490 186.9125 15.15597436656063
SAUDISAT 4              
1 40016U 14033G   26169.40381897  .00000519  00000+0  74909-4 0  9993
2 40016  97.7584 315.4963 0046120  70.1505 290.4670 14.79546128646253
APRIZESAT 9             
1 40018U 14033J   26169.63296534  .00000554  00000+0  88868-4 0  9991
2 40018  97.9064 302.7962 0065801 194.4917 165.4407 14.74216240643779
APRIZESAT 10            
1 40019U 14033K   26169.62325329  .00000337  00000+0  61064-4 0  9994
2 40019  97.9652 296.5506 0077394 269.1750  90.0589 14.70883483642466
TECHDEMOSAT-1 (TDS-1)   
1 40076U 14037H   26169.41482479  .00006014  00000+0  34199-3 0  9994
2 40076  98.3815 161.7491 0004562 260.1558  99.9156 15.13307168648413
TECHNOSAT               
1 42829U 17042E   26169.71201740  .00002941  00000+0  21082-3 0  9996
2 42829  97.4294 327.3113 0019059  89.4279 270.9132 15.04970473486939
FLYING LAPTOP           
1 42831U 17042G   26169.71864755  .00002941  00000+0  23309-3 0  9994
2 42831  97.4694 325.1921 0019604 116.6188 243.7048 15.01154582486685
HAWK-A                  
1 43765U 18099H   26169.59509786  .00004833  00000+0  19568-3 0  9994
2 43765  97.3909 221.8128 0033093 280.6489  79.1022 15.24656260413313
HAWK-B                  
1 43794U 18099AN  26169.68402272  .00004730  00000+0  20266-3 0  9991
2 43794  97.3957 221.3127 0030385 299.4016  60.4188 15.22838925413265
HAWK-C                  
1 43799U 18099AT  26169.63393733  .00005993  00000+0  21663-3 0  9996
2 43799  97.3885 222.7706 0038709 280.4350  79.2528 15.28119105414138
SALSAT                  
1 46495U 20068K   26169.45370448  .00006100  00000+0  21401-3 0  9990
2 46495  97.8850 172.5954 0007987 302.8690  57.1780 15.29814902315557
HAWK-2C                 
1 47502U 21006CT  26169.39112975  .00005088  00000+0  15366-3 0  9992
2 47502  97.2272 213.6771 0006824 181.5292 178.5932 15.34675098299681
HAWK-2A                 
1 47505U 21006CW  26169.58921690  .00005154  00000+0  15554-3 0  9991
2 47505  97.2312 214.5499 0006276 183.7955 176.3242 15.34692005299718
HAWK-2B                 
1 47508U 21006CZ  26169.06308422  .00006085  00000+0  18270-3 0  9991
2 47508  97.2185 212.3643 0006808 183.8760 176.2432 15.34776989299637
HAWK-3B                 
1 48931U 21059BE  26169.08929921  .00037571  00000+0  31819-3 0  9993
2 48931  97.6654   5.8821 0003180 327.3278  32.7786 15.69620903277990
HAWK-3C                 
1 48948U 21059BX  26169.08897472  .00034621  00000+0  29341-3 0  9996
2 48948  97.6772  11.5690 0003490 328.3716  31.7335 15.69618054277992
HAWK-3A                 
1 48957U 21059CG  26169.28008273  .00038183  00000+0  32291-3 0  9996
2 48957  97.6716   8.9829 0003460 329.5051  30.6008 15.69650937278022
HAWK-5C                 
1 52754U 22057Y   26169.39860828  .00014052  00000+0  23995-3 0  9999
2 52754  97.6605 329.1429 0004947  79.6625 280.5183 15.51427738226535
HAWK-5B                 
1 52756U 22057AA  26169.39845583  .00014515  00000+0  24773-3 0  9991
2 52756  97.6614 327.4921 0005611  72.4608 287.7256 15.51429515226531
HAWK-5A                 
1 52757U 22057AB  26169.72074237  .00015262  00000+0  26029-3 0  9995
2 52757  97.6613 328.6668 0005507  74.2620 285.9238 15.51436735226587
